SL-16 R/B               
1 24298U 96051B   25310.72338980 -.00000055  00000+0 -32038-5 0  9999
2 24298  70.7594  75.5143 0017743 307.1054  52.8443 14.12392332504281
ORBVIEW 2 (SEASTAR)     
1 24883U 97037A   25311.01630168  .00000415  00000+0  16072-3 0  9996
2 24883  98.8446 107.1963 0003135  71.6470 288.5056 14.35374249490874
SL-16 R/B               
1 25400U 98043G   25310.59330178  .00000129  00000+0  73053-4 0  9995
2 25400  98.8062 258.2204 0010188  17.6356 342.5175 14.26011435421444
SL-16 R/B               
1 25407U 98045B   25310.74133844  .00000100  00000+0  74502-4 0  9991
2 25407  71.0110  80.1266 0008879 225.9082 134.1311 14.16168474409697
ISS (ZARYA)             
1 25544U 98067A   25310.93718524  .00010004  00000+0  18426-3 0  9998
2 25544  51.6334 319.7134 0005156  25.1218 335.0021 15.49804267537306
CZ-4B R/B               
1 25732U 99025C   25311.12142022  .00000098  00000+0  68331-4 0  9991
2 25732  98.6823 353.1885 0036669 339.0372  81.4741 14.18229735370790
OKEAN-O                 
1 25860U 99039A   25311.16261233  .00001036  00000+0  14360-3 0  9993
2 25860  97.9655   7.1643 0001619  71.6680 288.4708 14.80068236416264
SL-16 R/B               
1 25861U 99039B   25311.12450728  .00000814  00000+0  11066-3 0  9992
2 25861  98.0179   5.2647 0013616 297.6772  62.3058 14.81506512418717
DELTA 2 R/B             
1 25876U 99041E   25310.73881216  .00001319  00000+0  25134-3 0  9999
2 25876  51.7629  72.1373 0504767 345.6796  13.0262 14.11271121345661
HELIOS 1B               
1 25977U 99064A   25311.14371363  .00002540  00000+0  28977-3 0  9994
2 25977  98.1756 204.7587 0002552  91.3272 268.8236 14.87054749667046
TERRA                   
1 25994U 99068A   25311.18846028  .00000683  00000+0  14865-3 0  9993
2 25994  97.9799   4.1671 0001982 176.3894 251.0567 14.60887869377198
SL-16 R/B               
1 26070U 00006B   25311.14882366  .00000124  00000+0  87117-4 0  9995
2 26070  71.0041 355.4936 0016507 359.7130   0.3980 14.15801512331210
